              M50 Cartesian                         M50 Keplerian  
    -----------------------------------       --------------------------------
     X    =       -3308165.43                 A    =         6776685.28  meter
     Y    =        2643288.26  meter          E    =           .0005774
     Z    =        5287351.70                 I    =           51.86375
     XDOT =      -5459.073654                 Wp   =           50.47991
     YDOT =      -5339.864327  meter/sec      RA   =           39.99271  deg
     ZDOT =       -741.944149                 TA   =           46.60629
                                              MA   =           46.55823
                                              Ha   =            221.393  n.mi
                                              Hp   =            213.555
 
              M50 Cartesian                         J2K Cartesian  
    -----------------------------------       --------------------------------
     X    =      -10853561.11                 X    =        -3363161.54
     Y    =        8672205.57  feet           Y    =         2605987.12  meter
     Z    =       17346954.41                 Z    =         5271147.40
     XDOT =     -17910.346634                 XDOT =       -5395.352128
     YDOT =     -17519.239918  feet/sec       YDOT =       -5400.555097  meter/sec
     ZDOT =      -2434.199965                 ZDOT =        -768.308122
 
              TDR Cartesian                         TDR Cartesian  
    -----------------------------------       --------------------------------
     X    =       -7886716.98                 X    =        -2403871.33
     Y    =       11543938.91  feet           Y    =         3518592.58  meter
     Z    =       17276021.97                 Z    =         5265731.50
     XDOT =     -21455.585600                 XDOT =       -6539.662491
     YDOT =     -10825.124785  feet/sec       YDOT =       -3299.498035  meter/sec
     ZDOT =      -2547.746015                 ZDOT =        -776.552985
  
  
    The mean element set is posted at the UTC for which position is
    just north of the next ascending node relative to the above
    vector time
 
 
    TWO LINE MEAN ELEMENT SET
  
    ISS
    1 25544U 98067A   16100.54691999  .00016717  00000-0  10270-3 0  9018
    2 25544  51.6428  40.3938 0002707  38.4984 321.6362 15.54423556 34300
  
  
    Satellite: ISS
    Catalog Number: 25544
    Epoch time:      16100.54691999   =   yrday.fracday
    Element set:     901
    Inclination:       51.6428  deg
    RA of node:        40.3938  deg
    Eccentricity:     .0002707     
    Arg of perigee:    38.4984  deg
    Mean anomaly:     321.6362  deg
    Mean motion:   15.54423556  rev/day
    Decay rate:    1.67170E-04  rev/day^2
    Epoch rev:            3430
    Checksum:              312
 
 
    Coasting Arc #3 (Orbit 3444)
    ---------------------------------------
 
    Vector Time (GMT): 2016/101/12:00:00.000
    Vector Time (MET): N/A
    Weight (LBS)     : 944180.3
 
              M50 Cartesian                         M50 Keplerian  
    -----------------------------------       --------------------------------
     X    =        4639228.47                 A    =         6778937.39  meter
     Y    =       -1328117.10  meter          E    =           .0012378
     Z    =       -4772308.85                 I    =           51.84566
     XDOT =       4392.601482                 Wp   =           97.07823
     YDOT =       5664.603334  meter/sec      RA   =           35.00754  deg
     ZDOT =       2698.178734                 TA   =          199.51319
                                              MA   =          199.56061
                                              Ha   =            221.327  n.mi
                                              Hp   =            213.611
 
              M50 Cartesian                         J2K Cartesian  
    -----------------------------------       --------------------------------
     X    =       15220565.86                 X    =         4676917.15
     Y    =       -4357339.57  feet           Y    =        -1276027.75  meter
     Z    =      -15657181.28                 Z    =        -4749680.70
     XDOT =      14411.422184                 XDOT =        4315.825235
     YDOT =      18584.656607  feet/sec       YDOT =        5713.295222  meter/sec
     ZDOT =       8852.292434                 ZDOT =        2719.330328
 
              TDR Cartesian                         TDR Cartesian  
    -----------------------------------       --------------------------------
     X    =       13177578.08                 X    =         4016525.80
     Y    =       -8948811.56  feet           Y    =        -2727597.76  meter
     Z    =      -15558584.98                 Z    =        -4742256.70
     XDOT =      18811.229879                 XDOT =        5733.662867
     YDOT =      12177.698223  feet/sec       YDOT =        3711.762418  meter/sec
     ZDOT =       8943.109577                 ZDOT =        2725.859799
  
  
    The mean element set is posted at the UTC for which position is
    just north of the next ascending node relative to the above
    vector time
 
 
    TWO LINE MEAN ELEMENT SET
  
    ISS
    1 25544U 98067A   16101.51126828  .00016717  00000-0  10270-3 0  9021
    2 25544  51.6424  35.5849 0002700  43.1310 317.0054 15.54428713 34455
  
  
    Satellite: ISS
    Catalog Number: 25544
    Epoch time:      16101.51126828   =   yrday.fracday
    Element set:     902
    Inclination:       51.6424  deg
    RA of node:        35.5849  deg
    Eccentricity:     .0002700     
    Arg of perigee:    43.1310  deg
    Mean anomaly:     317.0054  deg
    Mean motion:   15.54428713  rev/day
    Decay rate:    1.67170E-04  rev/day^2
    Epoch rev:            3445
    Checksum:              270
 
 
    Coasting Arc #4 (Orbit 3460)
    ---------------------------------------
 
    Vector Time (GMT): 2016/102/12:00:00.000
    Vector Time (MET): N/A
    Weight (LBS)     : 944180.3
 
              M50 Cartesian                         M50 Keplerian  
    -----------------------------------       --------------------------------
     X    =       -5696389.54                 A    =         6782786.81  meter
     Y    =          41371.65  meter          E    =           .0013994
     Z    =        3672508.26                 I    =           51.83250
     XDOT =      -2866.023880                 Wp   =           78.42180
     YDOT =      -5619.912336  meter/sec      RA   =           30.03014  deg
     ZDOT =      -4365.358181                 TA   =           58.01204
                                              MA   =           57.87610
                                              Ha   =            221.361  n.mi
                                              Hp   =            213.491
 
              M50 Cartesian                         J2K Cartesian  
    -----------------------------------       --------------------------------
     X    =      -18688942.05                 X    =        -5714268.45
     Y    =         135733.77  feet           Y    =          -22428.94  meter
     Z    =       12048911.60                 Z    =         3644792.89
     XDOT =      -9402.965486                 XDOT =       -2781.762350
     YDOT =     -18438.032600  feet/sec       YDOT =       -5651.491212  meter/sec
     ZDOT =     -14322.041277                 ZDOT =       -4379.075806
 
              TDR Cartesian                         TDR Cartesian  
    -----------------------------------       --------------------------------
     X    =      -17667851.83                 X    =        -5385161.24
     Y    =        6326934.19  feet           Y    =         1928449.54  meter
     Z    =       11928460.30                 Z    =         3635794.70
     XDOT =     -14416.752119                 XDOT =       -4394.226046
     YDOT =     -13041.294827  feet/sec       YDOT =       -3974.986663  meter/sec
     ZDOT =     -14380.550194                 ZDOT =       -4383.191699
  
  
    The mean element set is posted at the UTC for which position is
    just north of the next ascending node relative to the above
    vector time
 
 
    TWO LINE MEAN ELEMENT SET
  
    ISS
    1 25544U 98067A   16102.53989712  .00016717  00000-0  10270-3 0  9034
    2 25544  51.6430  30.4557 0002628  45.0177 315.1189 15.54449524 34612
  
  
    Satellite: ISS
    Catalog Number: 25544
    Epoch time:      16102.53989712   =   yrday.fracday
    Element set:     903
    Inclination:       51.6430  deg
    RA of node:        30.4557  deg
    Eccentricity:     .0002628     
    Arg of perigee:    45.0177  deg
    Mean anomaly:     315.1189  deg
    Mean motion:   15.54449524  rev/day
    Decay rate:    1.67170E-04  rev/day^2
    Epoch rev:            3461
    Checksum:              300
 
 
    Coasting Arc #5 (Orbit 3475)
    ---------------------------------------
 
    Vector Time (GMT): 2016/103/12:00:00.000
    Vector Time (MET): N/A
    Weight (LBS)     : 944180.3
 
              M50 Cartesian                         M50 Keplerian  
    -----------------------------------       --------------------------------
     X    =        6335725.40                 A    =         6786436.11  meter
     Y    =        1075297.00  meter          E    =           .0009001
     Z    =       -2173928.02                 I    =           51.81670
     XDOT =        992.127886                 Wp   =           43.22604
     YDOT =       5243.053339  meter/sec      RA   =           25.06144  deg
     ZDOT =       5504.715799                 TA   =          292.71525
                                              MA   =          292.81036
                                              Ha   =            221.348  n.mi
                                              Hp   =            213.440
 
